[{"OBJECT_NAME":"SHIJIAN-6 03B (SJ-6 03B)","OBJECT_ID":"2008-053B","EPOCH":"2026-03-09T23:28:00.216192","MEAN_MOTION":15.03879314,"ECCENTRICITY":0.00200774,"INCLINATION":97.8673,"RA_OF_ASC_NODE":87.2117,"ARG_OF_PERICENTER":21.0315,"MEAN_ANOMALY":339.1731,"EPHEMERIS_TYPE":0,"CLASSIFICATION_TYPE":"U","NORAD_CAT_ID":33409,"ELEMENT_SET_NO":999,"REV_AT_EPOCH":94783,"BSTAR":0.00032650966,"MEAN_MOTION_DOT":4.452e-5,"MEAN_MOTION_DDOT":0},{"OBJECT_NAME":"STARLINK-4754","OBJECT_ID":"2022-114AA","EPOCH":"2026-03-09T21:34:45.832512","MEAN_MOTION":15.08832557,"ECCENTRICITY":0.00014476,"INCLINATION":53.2177,"RA_OF_ASC_NODE":293.1541,"ARG_OF_PERICENTER":84.9325,"MEAN_ANOMALY":275.1832,"EPHEMERIS_TYPE":0,"CLASSIFICATION_TYPE":"U","NORAD_CAT_ID":53842,"ELEMENT_SET_NO":999,"REV_AT_EPOCH":19300,"BSTAR":0.00012653253,"MEAN_MOTION_DOT":1.726e-5,"MEAN_MOTION_DDOT":0}]
